*******************************************************************************
Ephemeris / WWW_USER Mon Mar 24 09:36:02 2025 Pasadena, USA      / Horizons    
*******************************************************************************
Target body name: 468861 (2013 LU28)              {source: JPL#36}
Center body name: Earth (399)                     {source: DE441}
Center-site name: Mauna Kea
*******************************************************************************
Start time      : A.D. 2018-Dec-31 04:03:00.0000 UT      
Stop  time      : A.D. 2018-Dec-31 16:46:00.0000 UT      
Step-size       : 1 minutes
*******************************************************************************
Target pole/equ : undefined
Target radii    : undefined                                                    
Center geodetic : 204.5278, 19.8260847, 4.21024   {E-lon(deg),Lat(deg),Alt(km)}
Center cylindric: 204.5278, 6006.35451, 2151.0229 {E-lon(deg),Dxy(km),Dz(km)}
Center pole/equ : ITRF93                          {East-longitude positive}
Center radii    : 6378.137, 6378.137, 6356.752 km {Equator_a, b, pole_c}       
Target primary  : Sun
Vis. interferer : MOON (R_eq= 1737.400) km        {source: DE441}
Rel. light bend : Sun                             {source: DE441}
Rel. lght bnd GM: 1.3271E+11 km^3/s^2                                          
Small-body perts: Yes                             {source: SB441-N16}
Atmos refraction: NO (AIRLESS)
RA format       : HMS
Time format     : CAL 
Calendar mode   : Mixed Julian/Gregorian
RTS-only print  : NO       
EOP file        : eop.250321.p250617                                           
EOP coverage    : DATA-BASED 1962-JAN-20 TO 2025-MAR-21. PREDICTS-> 2025-JUN-16
Units conversion: 1 au= 149597870.700 km, c= 299792.458 km/s, 1 day= 86400.0 s 
Table cut-offs 1: Elevation (-90.0deg=NO ),Airmass (>38.000=NO), Daylight (YES)
Table cut-offs 2: Solar elongation (  0.0,180.0=NO ),Local Hour Angle( 0.0=NO )
Table cut-offs 3: RA/DEC angular rate (     0.0=NO )                           
*******************************************************************************
Initial IAU76/J2000 heliocentric ecliptic osculating elements (au, days, deg.):
  EPOCH=  2459491.5 ! 2021-Oct-04.00 (TDB)         Residual RMS= .14077        
   EC= .9545524767334098   QR= 8.741840911970645   TP= 2460480.7801673855      
   OM= 275.9923561772391   W=  152.9171912923278   IN= 125.3473013584344       
  Equivalent ICRF heliocentric cartesian coordinates (au, au/d):
   X=-6.020062670108302E+00  Y=-1.182282064265113E+00  Z= 8.330249486138040E+00
  VX= 2.086988006100027E-03 VY= 7.079392581348984E-03 VZ=-1.092497303529149E-03
Asteroid physical parameters (km, seconds, rotational period in hours):        
   GM= n.a.                RAD= n.a.               ROTPER= n.a.                
   H= 8.24                 G= .150                 B-V= n.a.                   
                           ALBEDO= n.a.            STYP= n.a.                  
*******************************************************************************
 Date__(UT)__HR:MN     R.A._________(ICRF)_________DEC
******************************************************
$$SOE
 2018-Dec-31 04:03 C   15 22 18.552829 +35 24 31.20810
 2018-Dec-31 04:04 C   15 22 18.559939 +35 24 31.32818
 2018-Dec-31 04:05 C   15 22 18.567048 +35 24 31.44827
 2018-Dec-31 04:06 C   15 22 18.574159 +35 24 31.56836
 2018-Dec-31 04:07 C   15 22 18.581269 +35 24 31.68846
 2018-Dec-31 04:08 C   15 22 18.588381 +35 24 31.80856
 2018-Dec-31 04:09 C   15 22 18.595493 +35 24 31.92867
 2018-Dec-31 04:10 C   15 22 18.602605 +35 24 32.04879
 2018-Dec-31 04:11 C   15 22 18.609718 +35 24 32.16891
 2018-Dec-31 04:12 C   15 22 18.616832 +35 24 32.28904
 2018-Dec-31 04:13 C   15 22 18.623946 +35 24 32.40917
 2018-Dec-31 04:14 C   15 22 18.631060 +35 24 32.52932
 2018-Dec-31 04:15 C   15 22 18.638175 +35 24 32.64946
 2018-Dec-31 04:16 C   15 22 18.645291 +35 24 32.76962
 2018-Dec-31 04:17 C   15 22 18.652407 +35 24 32.88978
 2018-Dec-31 04:18 N   15 22 18.659524 +35 24 33.00995
 2018-Dec-31 04:19 N   15 22 18.666641 +35 24 33.13012
 2018-Dec-31 04:20 N   15 22 18.673758 +35 24 33.25030
 2018-Dec-31 04:21 N   15 22 18.680877 +35 24 33.37048
 2018-Dec-31 04:22 N   15 22 18.687995 +35 24 33.49068
 2018-Dec-31 04:23 N   15 22 18.695114 +35 24 33.61088
 2018-Dec-31 04:24 N   15 22 18.702234 +35 24 33.73108
 2018-Dec-31 04:25 N   15 22 18.709354 +35 24 33.85129
 2018-Dec-31 04:26 N   15 22 18.716475 +35 24 33.97151
 2018-Dec-31 04:27 N   15 22 18.723596 +35 24 34.09174
 2018-Dec-31 04:28 N   15 22 18.730718 +35 24 34.21197
 2018-Dec-31 04:29 N   15 22 18.737840 +35 24 34.33221
 2018-Dec-31 04:30 N   15 22 18.744962 +35 24 34.45245
 2018-Dec-31 04:31 N   15 22 18.752085 +35 24 34.57270
 2018-Dec-31 04:32 N   15 22 18.759209 +35 24 34.69296
 2018-Dec-31 04:33 N   15 22 18.766333 +35 24 34.81323
 2018-Dec-31 04:34 N   15 22 18.773457 +35 24 34.93350
 2018-Dec-31 04:35 N   15 22 18.780582 +35 24 35.05378
 2018-Dec-31 04:36 N   15 22 18.787707 +35 24 35.17406
 2018-Dec-31 04:37 N   15 22 18.794833 +35 24 35.29435
 2018-Dec-31 04:38 N   15 22 18.801960 +35 24 35.41465
 2018-Dec-31 04:39 N   15 22 18.809086 +35 24 35.53496
 2018-Dec-31 04:40 N   15 22 18.816213 +35 24 35.65527
 2018-Dec-31 04:41 N   15 22 18.823341 +35 24 35.77559
 2018-Dec-31 04:42 N   15 22 18.830469 +35 24 35.89591
 2018-Dec-31 04:43 N   15 22 18.837598 +35 24 36.01625
 2018-Dec-31 04:44 N   15 22 18.844727 +35 24 36.13659
 2018-Dec-31 04:45 A   15 22 18.851856 +35 24 36.25693
 2018-Dec-31 04:46 A   15 22 18.858986 +35 24 36.37728
 2018-Dec-31 04:47 A   15 22 18.866116 +35 24 36.49764
 2018-Dec-31 04:48 A   15 22 18.873247 +35 24 36.61801
 2018-Dec-31 04:49 A   15 22 18.880378 +35 24 36.73838
 2018-Dec-31 04:50 A   15 22 18.887509 +35 24 36.85877
 2018-Dec-31 04:51 A   15 22 18.894641 +35 24 36.97915
 2018-Dec-31 04:52 A   15 22 18.901773 +35 24 37.09955
 2018-Dec-31 04:53 A   15 22 18.908906 +35 24 37.21995
 2018-Dec-31 04:54 A   15 22 18.916039 +35 24 37.34036
 2018-Dec-31 04:55 A   15 22 18.923172 +35 24 37.46077
 2018-Dec-31 04:56 A   15 22 18.930306 +35 24 37.58120
 2018-Dec-31 04:57 A   15 22 18.937441 +35 24 37.70163
 2018-Dec-31 04:58 A   15 22 18.944575 +35 24 37.82206
 2018-Dec-31 04:59 A   15 22 18.951710 +35 24 37.94251
 2018-Dec-31 05:00 A   15 22 18.958846 +35 24 38.06296
 2018-Dec-31 05:01 A   15 22 18.965981 +35 24 38.18342
 2018-Dec-31 05:02 A   15 22 18.973118 +35 24 38.30388
 2018-Dec-31 05:03 A   15 22 18.980254 +35 24 38.42435
 2018-Dec-31 05:04 A   15 22 18.987391 +35 24 38.54483
 2018-Dec-31 05:05 A   15 22 18.994528 +35 24 38.66532
 2018-Dec-31 05:06 A   15 22 19.001666 +35 24 38.78581
 2018-Dec-31 05:07 A   15 22 19.008804 +35 24 38.90631
 2018-Dec-31 05:08 A   15 22 19.015942 +35 24 39.02682
 2018-Dec-31 05:09 A   15 22 19.023081 +35 24 39.14734
 2018-Dec-31 05:10 A   15 22 19.030220 +35 24 39.26786
 2018-Dec-31 05:11 A   15 22 19.037359 +35 24 39.38839
 2018-Dec-31 05:12     15 22 19.044499 +35 24 39.50893
 2018-Dec-31 05:13     15 22 19.051639 +35 24 39.62947
 2018-Dec-31 05:14     15 22 19.058779 +35 24 39.75002
 2018-Dec-31 05:15     15 22 19.065920 +35 24 39.87058
 2018-Dec-31 05:16     15 22 19.073061 +35 24 39.99115
 2018-Dec-31 05:17     15 22 19.080202 +35 24 40.11172
 2018-Dec-31 05:18     15 22 19.087344 +35 24 40.23230
 2018-Dec-31 05:19     15 22 19.094486 +35 24 40.35289
 2018-Dec-31 05:20     15 22 19.101628 +35 24 40.47349
 2018-Dec-31 05:21     15 22 19.108771 +35 24 40.59409
 2018-Dec-31 05:22     15 22 19.115914 +35 24 40.71470
 2018-Dec-31 05:23     15 22 19.123057 +35 24 40.83532
 2018-Dec-31 05:24     15 22 19.130200 +35 24 40.95595
 2018-Dec-31 05:25     15 22 19.137344 +35 24 41.07658
 2018-Dec-31 05:26     15 22 19.144488 +35 24 41.19722
 2018-Dec-31 05:27     15 22 19.151632 +35 24 41.31787
 2018-Dec-31 05:28     15 22 19.158777 +35 24 41.43852
 2018-Dec-31 05:29     15 22 19.165922 +35 24 41.55919
 2018-Dec-31 05:30     15 22 19.173067 +35 24 41.67986
 2018-Dec-31 05:31     15 22 19.180213 +35 24 41.80054
 2018-Dec-31 05:32     15 22 19.187358 +35 24 41.92122
 2018-Dec-31 05:33     15 22 19.194504 +35 24 42.04191
 2018-Dec-31 05:34     15 22 19.201650 +35 24 42.16262
 2018-Dec-31 05:35     15 22 19.208797 +35 24 42.28332
 2018-Dec-31 05:36     15 22 19.215944 +35 24 42.40404
 2018-Dec-31 05:37     15 22 19.223091 +35 24 42.52476
 2018-Dec-31 05:38     15 22 19.230238 +35 24 42.64549
 2018-Dec-31 05:39     15 22 19.237385 +35 24 42.76623
 2018-Dec-31 05:40     15 22 19.244533 +35 24 42.88698
 2018-Dec-31 05:41     15 22 19.251681 +35 24 43.00773
 2018-Dec-31 05:42     15 22 19.258829 +35 24 43.12849
 2018-Dec-31 05:43     15 22 19.265977 +35 24 43.24926
 2018-Dec-31 05:44     15 22 19.273126 +35 24 43.37004
 2018-Dec-31 05:45     15 22 19.280275 +35 24 43.49082
 2018-Dec-31 05:46     15 22 19.287424 +35 24 43.61162
 2018-Dec-31 05:47     15 22 19.294573 +35 24 43.73242
 2018-Dec-31 05:48     15 22 19.301723 +35 24 43.85322
 2018-Dec-31 05:49     15 22 19.308872 +35 24 43.97404
 2018-Dec-31 05:50     15 22 19.316022 +35 24 44.09486
 2018-Dec-31 05:51     15 22 19.323172 +35 24 44.21569
 2018-Dec-31 05:52     15 22 19.330322 +35 24 44.33653
 2018-Dec-31 05:53     15 22 19.337473 +35 24 44.45738
 2018-Dec-31 05:54     15 22 19.344624 +35 24 44.57823
 2018-Dec-31 05:55     15 22 19.351774 +35 24 44.69909
 2018-Dec-31 05:56     15 22 19.358925 +35 24 44.81996
 2018-Dec-31 05:57     15 22 19.366076 +35 24 44.94084
 2018-Dec-31 05:58     15 22 19.373228 +35 24 45.06172
 2018-Dec-31 05:59     15 22 19.380379 +35 24 45.18262
 2018-Dec-31 06:00     15 22 19.387531 +35 24 45.30352
 2018-Dec-31 06:01     15 22 19.394683 +35 24 45.42443
 2018-Dec-31 06:02     15 22 19.401835 +35 24 45.54534
 2018-Dec-31 06:03     15 22 19.408987 +35 24 45.66627
 2018-Dec-31 06:04     15 22 19.416139 +35 24 45.78720
 2018-Dec-31 06:05     15 22 19.423291 +35 24 45.90814
